ORBCOMM FM37            
1 33064U 08031E   25019.22562578  .00004032  00000+0  57133-3 0  9992
2 33064  48.4407 331.3245 0005618  90.8376  45.5671 14.78734671892318
ORBCOMM FM40            
1 33065U 08031F   25019.22116177  .00004951  00000+0  66362-3 0  9997
2 33065  48.4427 317.7296 0007017 103.7831  54.8815 14.80701789892512
VESSELSAT 1             
1 37840U 11058C   25018.91798744  .00000467  00000+0  11017-3 0  9991
2 37840  19.9621 277.0882 0013595 345.0743  14.9259 14.11295679685199
ORBCOMM FM109           
1 40086U 14040A   25018.99913036  .00001867  00000+0  44172-3 0  9995
2 40086  47.0051   0.6628 0002130 348.8461  11.2377 14.57695027559410
ORBCOMM FM107           
1 40087U 14040B   25019.17130294  .00001596  00000+0  38259-3 0  9992
2 40087  47.0067   0.8644 0002102 312.3028  47.7679 14.57762784559438
ORBCOMM FM106           
1 40088U 14040C   25018.88905931  .00002600  00000+0  47270-3 0  9998
2 40088  47.0577 196.1477 0016528  95.9963 264.2812 14.68722027561736
ORBCOMM FM111           
1 40089U 14040D   25019.19508049  .00004817  00000+0  58088-3 0  9994
2 40089  47.0023  64.5715 0030685 202.7242 157.2298 14.84816859568072
ORBCOMM FM104           
1 40090U 14040E   25018.72408771  .00001379  00000+0  34639-3 0  9991
2 40090  47.0062  34.8126 0017312 244.7024 115.2068 14.56213589558831
